#aV2006 11 24  0  0   .00000000      96 DD+AD WGS84 FIT  NGA
## 1402 432000.00000000   900.00000000 54063  .0000000000000
+   30     1  2  3  4  5  6  7  8  9 10 11 12 13 14 16 17 18
+         19 20 21 22 23 24 25 26 27 28 29 30 31  0  0  0  0
+          0  0  0  0  0  0  0  0  0  0  0  0  0  0  0  0  0
+          0  0  0  0  0  0  0  0  0  0  0  0  0  0  0  0  0
+          0  0  0  0  0  0  0  0  0  0  0  0  0  0  0  0  0
++         0  0  0  0  0  0  0  0  0  0  0  0  0  0  0  0  0
++         0  0  0  0  0  0  0  0  0  0  0  0  0  0  0  0  0
++         0  0  0  0  0  0  0  0  0  0  0  0  0  0  0  0  0
++         0  0  0  0  0  0  0  0  0  0  0  0  0  0  0  0  0
++         0  0  0  0  0  0  0  0  0  0  0  0  0  0  0  0  0
%c cc cc ccc ccc cccc cccc cccc cccc ccccc ccccc ccccc ccccc
%c cc cc ccc ccc cccc cccc cccc cccc ccccc ccccc ccccc ccccc
%f  0.0000000  0.000000000  0.00000000000  0.000000000000000
%f  0.0000000  0.000000000  0.00000000000  0.000000000000000
%i    0    0    0    0      0      0      0      0         0
%i    0    0    0    0      0      0      0      0         0
/*      NGA, ST. LOUIS,MO.                                  
/*   EPHEMERIS COMPUTED FROM  3 DAYS OF DATA                
/* CCCCCCCCCCCCCCCCCCCCCCCCCCCCCCCCCCCCCCCCCCCCCCCCCCCCCCCCC
/* CCCCCCCCCCCCCCCCCCCCCCCCCCCCCCCCCCCCCCCCCCCCCCCCCCCCCCCCC
*  2006 11 24 17  0   .00000000                                                 
P  1  18215.694033   9532.243171 -16648.454869     91.362898                    
V  1   9686.509080  19177.110472  21250.627306       .028154                    
P  2 -17375.111558   2296.032651 -20127.978166     57.733869                    
V  2  10293.527613 -22977.708083 -11881.911228       .036025                    
P  3  19679.972014   3894.270798  17365.357142    421.554774                    
V  3  12208.664971  18933.031856 -17555.200571       .255126                    
P  4 -11238.600951 -11320.338944 -21240.855803    339.848714                    
V  4  13363.162303 -23419.512896   5782.682040       .039237                    
P  5 -16872.004031  13654.715859 -15433.961329    386.408108                    
V  5 -19475.810934     82.791293  21838.968672       .257961                    
P  6   3430.876322  22480.042377 -13490.483205    538.444176                    
V  6 -12405.419684 -12729.958086 -24090.618422      -.149300                    
P  7  15250.238618  21650.581901   -662.827233    488.761405                    
V  7  -3757.508625   1183.815692 -31215.258933      -.081674                    
P  8  -3013.661310 -19101.442107  17871.742201    -87.162222                    
V  8  12876.741457 -19235.786818 -18675.873725      -.012886                    
P  9 -15261.932344  19912.039110   7761.773433     46.019977                    
V  9   1932.627937 -10909.524138  29847.408765       .016162                    
P 10 -26707.416666   1038.930701    548.973050     93.346583                    
V 10   -862.646521  -2193.733319 -31768.938502       .006788                    
P 11  12860.045543 -22073.983477   6639.194787     -3.117133                    
V 11   1867.260190   9778.991615  28808.089330       .016800                    
P 12 -26168.238128  -2095.089397   4935.106195   -174.312354                    
V 12   5960.975278  -2899.228029  30828.309514     -4.357569                    
P 13  -4350.471910 -23084.952818 -12523.678595    115.912828                    
V 13   9295.077012  12723.487396 -26832.368834       .036931                    
P 14  15723.009246  21184.216296  -3327.838871      -.181689                    
V 14    660.618569   4656.821890  31919.170639       .010268                    
P 16  26348.600894   1450.087116  -3463.284319     95.034621                    
V 16  -4378.529551   2803.915993 -31309.688822       .038068                    
P 17 -16037.046683 -21013.121280  -3165.571339     88.582076                    
V 17    149.675093  -4839.130149  31322.545464      -.013135                    
P 18   2891.512685  15300.499214  21670.008530   -252.922049                    
V 18 -27198.680468    311.229179   3112.382781      -.003949                    
P 19  14245.174928  -5855.512542  21739.432003     37.666241                    
V 19  13207.426244  23984.584187  -2119.471825       .040055                    
P 20  14458.506989 -13476.426467 -17812.633443    -21.793227                    
V 20  22537.273688    391.689043  18120.624218       .000167                    
P 21  -1644.927225  22720.704568  13275.968039     62.609669                    
V 21 -10953.842102  13321.257308 -24868.510538       .014423                    
P 22  16264.074409  12265.510675  17218.495645    151.564148                    
V 22 -21566.177769   1770.520019  19271.165831       .024269                    
P 23   5260.995467 -16922.223842 -19804.181895    141.136201                    
V 23  14514.993545  20392.485072 -13812.696333       .008710                    
P 24 -17141.295826   1323.607896 -20142.592699     54.875233                    
V 24  12213.050211 -22885.821437 -11484.477273       .028898                    
P 25  14524.649024   4328.645014 -21416.719057    406.645744                    
V 25 -10399.253199  26169.710027  -1579.863070       .008695                    
P 26 -14117.803922   4133.468191  21754.206140    -18.506930                    
V 26 -14624.047045 -24432.348272  -4208.847011      -.164656                    
P 27   2677.251176 -24337.824262  10527.437065     79.720277                    
V 27   7378.966051 -10478.654782 -28042.352303       .019577                    
P 28 -12740.288519 -13327.336698  19545.802055     13.513217                    
V 28  24024.088171  -1691.623575  14387.046835      -.009343                    
P 29 -16429.387400    315.615905  21165.958595    217.927916                    
V 29 -13903.108246 -22211.725536 -10264.994445       .267790                    
P 30  -4386.050934  15758.883420 -21212.202900     17.432675                    
V 30 -26280.725967   1501.086385   6755.551530       .011134                    
P 31  13188.589088   7450.607945 -21623.089137    -36.263359                    
V 31 -12762.231734  24835.527266    805.316883       .091851                    
EOF
